ORBCOMM FM115           
1 41186U 15081H   24196.40751203  .00001153  00000+0  26861-3 0  9994
2 41186  46.9971 204.2535 0001647 301.5936  58.4789 14.60880323458355
ORBCOMM FM108           
1 41187U 15081J   24196.56992006  .00001266  00000+0  31774-3 0  9994
2 41187  47.0045 259.8522 0002825 224.2691 135.7968 14.56728758457546
ORBCOMM FM117           
1 41188U 15081K   24196.53570461  .00001261  00000+0  31662-3 0  9990
2 41188  47.0006 258.8843 0003632 229.8145 130.2422 14.56730319457632
ORBCOMM FM116           
1 41189U 15081L   24196.52465840  .00001778  00000+0  43101-3 0  9998
2 41189  47.0034 348.7558 0002591 280.6671  79.3922 14.56743988456394
